{"fetched_at":"2026-03-29T02:12:04Z","count":15717,"tles":[{"name":"TIANHUI 2-01B","line1":"1 44209U 19024C   26086.55154550  .00002023  00000+0  10668-3 0  9997","line2":"2 44209  97.4820  91.5663 0001771  78.8553 281.2880 15.16705814382339","category":"Other"}]}