{
  "norad_id": 44209,
  "name": "TIANHUI 2-01B",
  "history": [
    {
      "epoch": "2026-03-27T13:14:13.531200Z",
      "apogee_km": 517.0256260395399,
      "perigee_km": 514.5837918862262,
      "latitude_deg": 8.958848591727836e-05,
      "longitude_deg": 68.02519024751693,
      "height_km": 518.6495442231892,
      "semi_major_axis_km": 6893.941708962883,
      "eccentricity": 0.0001771,
      "inclination_deg": 97.482,
      "raan_deg": 91.5663,
      "arg_perigee_deg": 78.8553,
      "mean_anomaly_deg": 281.288,
      "mean_motion_rev_day": 15.16705814
    }
  ]
}